stk.v.4.3 

BEGIN Ephemeris 
 
NumberOfEphemerisPoints		146 
ScenarioEpoch	    1 Sep 2020 20:28:34.737322927 
InterpolationMethod		Lagrange 
InterpolationOrder		5 
CentralBody				Earth 
CoordinateSystem			TEME 
CoordinateSystemEpoch	  1 Sep 2020 20:28:34.737322927 
DistanceUnit			Kilometers 
 
EphemerisTimePosVel 
 
       0.00000000   -7073.55480166   -1098.58654365       0.03929259  0.081332250 -0.461060808  7.449095246
 END Ephemeris 
